[{"OBJECT_NAME":"FENGYUN 3A","OBJECT_ID":"2008-026A","EPOCH":"2026-03-09T17:38:43.829664","MEAN_MOTION":14.1954647,"ECCENTRICITY":0.0009678,"INCLINATION":98.6797,"RA_OF_ASC_NODE":11.4771,"ARG_OF_PERICENTER":58.1455,"MEAN_ANOMALY":302.0662,"EPHEMERIS_TYPE":0,"CLASSIFICATION_TYPE":"U","NORAD_CAT_ID":32958,"ELEMENT_SET_NO":999,"REV_AT_EPOCH":92129,"BSTAR":9.6161117e-5,"MEAN_MOTION_DOT":1.6e-6,"MEAN_MOTION_DDOT":0},{"OBJECT_NAME":"CZ-6A DEB","OBJECT_ID":"2022-151PR","EPOCH":"2026-03-09T10:33:54.113760","MEAN_MOTION":14.13218865,"ECCENTRICITY":0.00280695,"INCLINATION":98.814,"RA_OF_ASC_NODE":74.2143,"ARG_OF_PERICENTER":244.5182,"MEAN_ANOMALY":115.3086,"EPHEMERIS_TYPE":0,"CLASSIFICATION_TYPE":"U","NORAD_CAT_ID":54639,"ELEMENT_SET_NO":999,"REV_AT_EPOCH":17121,"BSTAR":0.00012058574,"MEAN_MOTION_DOT":1.83e-6,"MEAN_MOTION_DDOT":0}]
